[{"OBJECT_NAME":"STARLINK-34982","OBJECT_ID":"2025-179J","EPOCH":"2026-03-09T16:14:18.215808","MEAN_MOTION":15.05649934,"ECCENTRICITY":6.969e-5,"INCLINATION":97.603,"RA_OF_ASC_NODE":112.909,"ARG_OF_PERICENTER":117.7147,"MEAN_ANOMALY":242.4151,"EPHEMERIS_TYPE":0,"CLASSIFICATION_TYPE":"U","NORAD_CAT_ID":65243,"ELEMENT_SET_NO":999,"REV_AT_EPOCH":3197,"BSTAR":0.00016155937,"MEAN_MOTION_DOT":2.271e-5,"MEAN_MOTION_DDOT":0},{"OBJECT_NAME":"MINOTAUR 4 R\/B","OBJECT_ID":"2020-046E","EPOCH":"2026-03-09T23:21:28.488960","MEAN_MOTION":15.06543892,"ECCENTRICITY":0.00095926,"INCLINATION":53.9792,"RA_OF_ASC_NODE":306.0413,"ARG_OF_PERICENTER":86.078,"MEAN_ANOMALY":274.1318,"EPHEMERIS_TYPE":0,"CLASSIFICATION_TYPE":"U","NORAD_CAT_ID":45877,"ELEMENT_SET_NO":999,"REV_AT_EPOCH":23396,"BSTAR":0.00016618262,"MEAN_MOTION_DOT":2.204e-5,"MEAN_MOTION_DDOT":0}]
